STARLINK-31846          
1 60126U 24118P   26070.23658366  .00001176  00000+0  51840-4 0  9991
2 60126  53.1616  19.5019 0000991 104.2610 255.8500 15.30190546 95932
STARLINK-31840          
1 60127U 24118Q   26070.17760469 -.00000622  00000+0 -88699-5 0  9993
2 60127  53.1622  19.8441 0001212  95.8126 264.3014 15.30182122 95921
STARLINK-31813          
1 60128U 24118R   26070.23975214  .00000230  00000+0  19897-4 0  9993
2 60128  53.1623  19.5202 0001212  98.1472 261.9667 15.30183043 95936
STARLINK-31845          
1 60129U 24118S   26070.23711215 -.00000676  00000+0 -10701-4 0  9994
2 60129  53.1620  17.3653 0001141 106.6003 253.5123 15.30183525 95968
STARLINK-31838          
1 60130U 24118T   26070.11862072 -.00003307  00000+0 -99574-4 0  9990
2 60130  53.1622  20.1860 0001033  89.7598 270.3522 15.30199934 95910
STARLINK-31785          
1 60131U 24118U   26070.23235748 -.00001845  00000+0 -50185-4 0  9998
2 60131  53.1602  19.4755 0001124  97.0375 263.0753 15.30194291 95937
STARLINK-31792          
1 60132U 24118V   26070.22021982  .00000212  00000+0  19297-4 0  9995
2 60132  53.1618  17.2233 0001027 115.0467 245.0641 15.30183759 95963
STARLINK-32043          
1 60135U 24120A   26070.36485233  .00000899  00000+0  42470-4 0  9999
2 60135  53.1597 312.0748 0000864 118.4138 241.6950 15.30195984 96632
STARLINK-32112          
1 60136U 24120B   26070.06994117  .00000491  00000+0  28737-4 0  9991
2 60136  53.1624 313.7890 0001446 109.1088 251.0069 15.30159510 96662
STARLINK-32050          
1 60137U 24120C   26070.40284258  .00000486  00000+0  28560-4 0  9996
2 60137  53.1614 312.3151 0001255 116.9805 243.1324 15.30183584 96639
STARLINK-32025          
1 60138U 24120D   26069.95609685 -.00001623  00000+0 -42747-4 0  9999
2 60138  53.1603 313.7872 0001016  69.8491 290.2619 15.30167804 96575
STARLINK-31867          
1 60139U 24120E   26070.50003471  .00394040  67997-4  13720-2 0  9990
2 60139  53.1390 293.9782 0012047 206.4060 261.1052 15.88746440  5991
STARLINK-31694          
1 60140U 24120F   26070.39440109  .00000744  00000+0  37238-4 0  9996
2 60140  53.1607 312.2592 0001005  75.9056 284.2056 15.30189667 96713
STARLINK-32036          
1 60141U 24120G   26070.39334251 -.00000752  00000+0 -13260-4 0  9997
2 60141  53.1614 312.2533 0001179  98.2760 261.8375 15.30188853 96710
STARLINK-32031          
1 60142U 24120H   26070.38700627  .00001148  00000+0  50879-4 0  9996
2 60142  53.1616 312.2112 0001507  98.7896 261.3276 15.30193130 96715
STARLINK-32027          
1 60143U 24120J   26070.08247930  .00000291  00000+0  21949-4 0  9991
2 60143  53.1602 313.1146 0001000  81.4419 278.6695 15.30189866 96678
STARLINK-32033          
1 60144U 24120K   26070.09515149  .00000606  00000+0  32609-4 0  9998
2 60144  53.1598 313.2386 0001128  88.8572 271.2558 15.30186092 96598
