[{"OBJECT_NAME":"STARLINK-31846","OBJECT_ID":"2024-118P","EPOCH":"2026-03-11T05:40:40.828224","MEAN_MOTION":15.30190546,"ECCENTRICITY":9.91e-5,"INCLINATION":53.1616,"RA_OF_ASC_NODE":19.5019,"ARG_OF_PERICENTER":104.261,"MEAN_ANOMALY":255.85,"EPHEMERIS_TYPE":0,"CLASSIFICATION_TYPE":"U","NORAD_CAT_ID":60126,"ELEMENT_SET_NO":999,"REV_AT_EPOCH":9593,"BSTAR":5.184e-5,"MEAN_MOTION_DOT":1.176e-5,"MEAN_MOTION_DDOT":0},{"OBJECT_NAME":"STARLINK-31840","OBJECT_ID":"2024-118Q","EPOCH":"2026-03-11T04:15:45.045216","MEAN_MOTION":15.30182122,"ECCENTRICITY":0.00012127,"INCLINATION":53.1622,"RA_OF_ASC_NODE":19.8441,"ARG_OF_PERICENTER":95.8126,"MEAN_ANOMALY":264.3014,"EPHEMERIS_TYPE":0,"CLASSIFICATION_TYPE":"U","NORAD_CAT_ID":60127,"ELEMENT_SET_NO":999,"REV_AT_EPOCH":9592,"BSTAR":-8.869948e-6,"MEAN_MOTION_DOT":-6.22e-6,"MEAN_MOTION_DDOT":0},{"OBJECT_NAME":"STARLINK-31813","OBJECT_ID":"2024-118R","EPOCH":"2026-03-11T05:45:14.584896","MEAN_MOTION":15.30183043,"ECCENTRICITY":0.0001212,"INCLINATION":53.1623,"RA_OF_ASC_NODE":19.5202,"ARG_OF_PERICENTER":98.1472,"MEAN_ANOMALY":261.9667,"EPHEMERIS_TYPE":0,"CLASSIFICATION_TYPE":"U","NORAD_CAT_ID":60128,"ELEMENT_SET_NO":999,"REV_AT_EPOCH":9593,"BSTAR":1.9897e-5,"MEAN_MOTION_DOT":2.3e-6,"MEAN_MOTION_DDOT":0},{"OBJECT_NAME":"STARLINK-31845","OBJECT_ID":"2024-118S","EPOCH":"2026-03-11T05:41:26.489760","MEAN_MOTION":15.30183525,"ECCENTRICITY":0.0001141,"INCLINATION":53.162,"RA_OF_ASC_NODE":17.3653,"ARG_OF_PERICENTER":106.6003,"MEAN_ANOMALY":253.5123,"EPHEMERIS_TYPE":0,"CLASSIFICATION_TYPE":"U","NORAD_CAT_ID":60129,"ELEMENT_SET_NO":999,"REV_AT_EPOCH":9596,"BSTAR":-1.0701e-5,"MEAN_MOTION_DOT":-6.76e-6,"MEAN_MOTION_DDOT":0},{"OBJECT_NAME":"STARLINK-31838","OBJECT_ID":"2024-118T","EPOCH":"2026-03-11T02:50:48.830208","MEAN_MOTION":15.30199934,"ECCENTRICITY":0.00010339,"INCLINATION":53.1622,"RA_OF_ASC_NODE":20.186,"ARG_OF_PERICENTER":89.7598,"MEAN_ANOMALY":270.3522,"EPHEMERIS_TYPE":0,"CLASSIFICATION_TYPE":"U","NORAD_CAT_ID":60130,"ELEMENT_SET_NO":999,"REV_AT_EPOCH":9591,"BSTAR":-9.9574166e-5,"MEAN_MOTION_DOT":-3.307e-5,"MEAN_MOTION_DDOT":0},{"OBJECT_NAME":"STARLINK-31785","OBJECT_ID":"2024-118U","EPOCH":"2026-03-11T05:34:35.686272","MEAN_MOTION":15.30194291,"ECCENTRICITY":0.0001124,"INCLINATION":53.1602,"RA_OF_ASC_NODE":19.4755,"ARG_OF_PERICENTER":97.0375,"MEAN_ANOMALY":263.0753,"EPHEMERIS_TYPE":0,"CLASSIFICATION_TYPE":"U","NORAD_CAT_ID":60131,"ELEMENT_SET_NO":999,"REV_AT_EPOCH":9593,"BSTAR":-5.0185e-5,"MEAN_MOTION_DOT":-1.845e-5,"MEAN_MOTION_DDOT":0},{"OBJECT_NAME":"STARLINK-31792","OBJECT_ID":"2024-118V","EPOCH":"2026-03-11T05:17:06.992448","MEAN_MOTION":15.30183759,"ECCENTRICITY":0.0001027,"INCLINATION":53.1618,"RA_OF_ASC_NODE":17.2233,"ARG_OF_PERICENTER":115.0467,"MEAN_ANOMALY":245.0641,"EPHEMERIS_TYPE":0,"CLASSIFICATION_TYPE":"U","NORAD_CAT_ID":60132,"ELEMENT_SET_NO":999,"REV_AT_EPOCH":9596,"BSTAR":1.9297e-5,"MEAN_MOTION_DOT":2.12e-6,"MEAN_MOTION_DDOT":0},{"OBJECT_NAME":"STARLINK-32043","OBJECT_ID":"2024-120A","EPOCH":"2026-03-11T08:45:23.241312","MEAN_MOTION":15.30195984,"ECCENTRICITY":8.64e-5,"INCLINATION":53.1597,"RA_OF_ASC_NODE":312.0748,"ARG_OF_PERICENTER":118.4138,"MEAN_ANOMALY":241.695,"EPHEMERIS_TYPE":0,"CLASSIFICATION_TYPE":"U","NORAD_CAT_ID":60135,"ELEMENT_SET_NO":999,"REV_AT_EPOCH":9663,"BSTAR":4.247e-5,"MEAN_MOTION_DOT":8.99e-6,"MEAN_MOTION_DDOT":0},{"OBJECT_NAME":"STARLINK-32112","OBJECT_ID":"2024-120B","EPOCH":"2026-03-11T01:40:42.917088","MEAN_MOTION":15.3015951,"ECCENTRICITY":0.00014467,"INCLINATION":53.1624,"RA_OF_ASC_NODE":313.789,"ARG_OF_PERICENTER":109.1088,"MEAN_ANOMALY":251.0069,"EPHEMERIS_TYPE":0,"CLASSIFICATION_TYPE":"U","NORAD_CAT_ID":60136,"ELEMENT_SET_NO":999,"REV_AT_EPOCH":9666,"BSTAR":2.8737312e-5,"MEAN_MOTION_DOT":4.91e-6,"MEAN_MOTION_DDOT":0},{"OBJECT_NAME":"STARLINK-32050","OBJECT_ID":"2024-120C","EPOCH":"2026-03-11T09:40:05.598912","MEAN_MOTION":15.30183584,"ECCENTRICITY":0.0001255,"INCLINATION":53.1614,"RA_OF_ASC_NODE":312.3151,"ARG_OF_PERICENTER":116.9805,"MEAN_ANOMALY":243.1324,"EPHEMERIS_TYPE":0,"CLASSIFICATION_TYPE":"U","NORAD_CAT_ID":60137,"ELEMENT_SET_NO":999,"REV_AT_EPOCH":9663,"BSTAR":2.856e-5,"MEAN_MOTION_DOT":4.86e-6,"MEAN_MOTION_DDOT":0},{"OBJECT_NAME":"STARLINK-32025","OBJECT_ID":"2024-120D","EPOCH":"2026-03-10T22:56:46.767840","MEAN_MOTION":15.30167804,"ECCENTRICITY":0.0001016,"INCLINATION":53.1603,"RA_OF_ASC_NODE":313.7872,"ARG_OF_PERICENTER":69.8491,"MEAN_ANOMALY":290.2619,"EPHEMERIS_TYPE":0,"CLASSIFICATION_TYPE":"U","NORAD_CAT_ID":60138,"ELEMENT_SET_NO":999,"REV_AT_EPOCH":9657,"BSTAR":-4.2747e-5,"MEAN_MOTION_DOT":-1.623e-5,"MEAN_MOTION_DDOT":0},{"OBJECT_NAME":"STARLINK-31867","OBJECT_ID":"2024-120E","EPOCH":"2026-03-11T12:00:02.998944","MEAN_MOTION":15.8874644,"ECCENTRICITY":0.0012047,"INCLINATION":53.139,"RA_OF_ASC_NODE":293.9782,"ARG_OF_PERICENTER":206.406,"MEAN_ANOMALY":261.1052,"EPHEMERIS_TYPE":0,"CLASSIFICATION_TYPE":"U","NORAD_CAT_ID":60139,"ELEMENT_SET_NO":999,"REV_AT_EPOCH":599,"BSTAR":0.001372,"MEAN_MOTION_DOT":0.0039404,"MEAN_MOTION_DDOT":6.7997e-5},{"OBJECT_NAME":"STARLINK-31694","OBJECT_ID":"2024-120F","EPOCH":"2026-03-11T09:27:56.254176","MEAN_MOTION":15.30189667,"ECCENTRICITY":0.0001005,"INCLINATION":53.1607,"RA_OF_ASC_NODE":312.2592,"ARG_OF_PERICENTER":75.9056,"MEAN_ANOMALY":284.2056,"EPHEMERIS_TYPE":0,"CLASSIFICATION_TYPE":"U","NORAD_CAT_ID":60140,"ELEMENT_SET_NO":999,"REV_AT_EPOCH":9671,"BSTAR":3.7238e-5,"MEAN_MOTION_DOT":7.44e-6,"MEAN_MOTION_DDOT":0},{"OBJECT_NAME":"STARLINK-32036","OBJECT_ID":"2024-120G","EPOCH":"2026-03-11T09:26:24.792864","MEAN_MOTION":15.30188853,"ECCENTRICITY":0.0001179,"INCLINATION":53.1614,"RA_OF_ASC_NODE":312.2533,"ARG_OF_PERICENTER":98.276,"MEAN_ANOMALY":261.8375,"EPHEMERIS_TYPE":0,"CLASSIFICATION_TYPE":"U","NORAD_CAT_ID":60141,"ELEMENT_SET_NO":999,"REV_AT_EPOCH":9671,"BSTAR":-1.326e-5,"MEAN_MOTION_DOT":-7.52e-6,"MEAN_MOTION_DDOT":0},{"OBJECT_NAME":"STARLINK-32031","OBJECT_ID":"2024-120H","EPOCH":"2026-03-11T09:17:17.341728","MEAN_MOTION":15.3019313,"ECCENTRICITY":0.0001507,"INCLINATION":53.1616,"RA_OF_ASC_NODE":312.2112,"ARG_OF_PERICENTER":98.7896,"MEAN_ANOMALY":261.3276,"EPHEMERIS_TYPE":0,"CLASSIFICATION_TYPE":"U","NORAD_CAT_ID":60142,"ELEMENT_SET_NO":999,"REV_AT_EPOCH":9671,"BSTAR":5.0879e-5,"MEAN_MOTION_DOT":1.148e-5,"MEAN_MOTION_DDOT":0},{"OBJECT_NAME":"STARLINK-32027","OBJECT_ID":"2024-120J","EPOCH":"2026-03-11T01:58:46.211520","MEAN_MOTION":15.30189866,"ECCENTRICITY":0.00010008,"INCLINATION":53.1602,"RA_OF_ASC_NODE":313.1146,"ARG_OF_PERICENTER":81.4419,"MEAN_ANOMALY":278.6695,"EPHEMERIS_TYPE":0,"CLASSIFICATION_TYPE":"U","NORAD_CAT_ID":60143,"ELEMENT_SET_NO":999,"REV_AT_EPOCH":9667,"BSTAR":2.1949364e-5,"MEAN_MOTION_DOT":2.91e-6,"MEAN_MOTION_DDOT":0},{"OBJECT_NAME":"STARLINK-32033","OBJECT_ID":"2024-120K","EPOCH":"2026-03-11T02:17:01.088736","MEAN_MOTION":15.30186092,"ECCENTRICITY":0.0001128,"INCLINATION":53.1598,"RA_OF_ASC_NODE":313.2386,"ARG_OF_PERICENTER":88.8572,"MEAN_ANOMALY":271.2558,"EPHEMERIS_TYPE":0,"CLASSIFICATION_TYPE":"U","NORAD_CAT_ID":60144,"ELEMENT_SET_NO":999,"REV_AT_EPOCH":9659,"BSTAR":3.2608653e-5,"MEAN_MOTION_DOT":6.06e-6,"MEAN_MOTION_DDOT":0}]
